OBJECT_NAME,OBJECT_ID,EPOCH,MEAN_MOTION,ECCENTRICITY,INCLINATION,RA_OF_ASC_NODE,ARG_OF_PERICENTER,MEAN_ANOMALY,EPHEMERIS_TYPE,CLASSIFICATION_TYPE,NORAD_CAT_ID,ELEMENT_SET_NO,REV_AT_EPOCH,BSTAR,MEAN_MOTION_DOT,MEAN_MOTION_DDOT
STARLINK-37518,2026-117X,2026-06-10T12:00:02.000160,15.88852087,.0000858,53.1548,276.4660,71.7855,358.4012,0,U,69259,999,310,-.72704E-2,-.1814252E-1,0
STARLINK-37478,2026-117Y,2026-06-10T12:00:02.000160,15.88750101,.0000701,53.1550,276.4742,77.1930,349.1170,0,U,69260,999,310,-.70365E-2,-.1756157E-1,0
STARLINK-37506,2026-117Z,2026-06-10T12:00:02.000160,15.88939821,.0001022,53.1546,276.4622,50.8548,21.0395,0,U,69261,999,310,-.71145E-2,-.1787934E-1,0
STARLINK-37503,2026-117AA,2026-06-10T12:00:02.000160,15.88809439,.0000826,53.1550,276.4565,70.7253,3.7082,0,U,69262,999,310,-.72999E-2,-.1817138E-1,0
STARLINK-37502,2026-117AB,2026-06-10T12:00:02.000160,15.88745940,.0000869,53.1549,276.4512,70.1645,6.5588,0,U,69263,999,310,-.70868E-2,-.1766774E-1,0
STARLINK-37486,2026-117AC,2026-06-10T12:00:02.000160,15.88543945,.0001012,53.1547,276.4414,52.5663,28.9467,0,U,69264,999,310,-.73428E-2,-.1805518E-1,0
STARLINK-37435,2026-117AD,2026-06-10T12:00:02.000160,15.87338508,.0000758,53.1547,276.4342,71.0649,13.3682,0,U,69265,999,310,-.77823E-2,-.180114E-1,0
STARLINK-37464,2026-117AE,2026-06-10T12:00:02.000160,15.86601303,.0000836,53.1546,276.4154,64.4834,28.8930,0,U,69266,999,310,-.91215E-2,-.2046779E-1,0
KUIPER-00282,2026-118A,2026-06-10T09:13:28.450848,15.34650719,.001195,51.8589,86.3343,155.7593,204.3957,0,U,69267,999,293,.38902E-3,.12929E-3,0
KUIPER-00383,2026-118B,2026-06-10T09:09:15.806016,15.34992646,.0010489,51.8592,86.3159,157.6625,202.4819,0,U,69268,999,293,.46141E-3,.15576E-3,0
KUIPER-00527,2026-118C,2026-06-10T12:12:35.676000,15.35536412,.0009645,51.8619,85.6705,151.5421,208.6093,0,U,69269,999,295,.14755E-3,.4796E-4,0
KUIPER-00562,2026-118D,2026-06-10T11:46:56.603424,15.38502537,.000197,51.8718,85.5470,99.7964,260.3246,0,U,69270,999,295,.50125E-3,.19E-3,0
KUIPER-00570,2026-118E,2026-06-10T12:16:09.763968,15.35344670,.0011674,51.8579,85.6843,160.7112,199.4318,0,U,69271,999,295,.4762E-3,.1628E-3,0
KUIPER-00572,2026-118F,2026-06-10T12:04:31.613088,15.36850960,.0007332,51.8677,85.6348,146.1929,213.9526,0,U,69272,999,295,.43517E-3,.15573E-3,0
KUIPER-00581,2026-118G,2026-06-10T12:07:58.197216,15.36531574,.0008885,51.8654,85.6514,151.1083,209.0397,0,U,69273,999,304,.50873E-3,.18095E-3,0
KUIPER-00584,2026-118H,2026-06-10T09:11:18.424032,15.35290787,.0010867,51.8606,86.3255,164.0285,196.1045,0,U,69274,999,293,-.91819E-4,-.3588E-4,0
KUIPER-00587,2026-118J,2026-06-10T12:07:13.796256,15.36513341,.0008366,51.8630,85.6467,152.7720,207.3707,0,U,69275,999,295,.47142E-3,.16724E-3,0
KUIPER-00590,2026-118K,2026-06-10T11:55:00.580800,15.37735270,.0004427,51.8683,85.5926,133.3477,226.7879,0,U,69276,999,295,.50517E-3,.18675E-3,0
KUIPER-00592,2026-118L,2026-06-10T10:19:09.636960,15.37968706,.0003777,51.8702,85.8946,111.4415,248.6975,0,U,69277,999,294,.51621E-3,.19239E-3,0
KUIPER-00593,2026-118M,2026-06-10T11:53:14.923104,15.37863949,.0004081,51.8710,85.5810,128.4524,231.6830,0,U,69278,999,301,.47786E-3,.17716E-3,0
KUIPER-00594,2026-118N,2026-06-10T11:45:24.188256,15.38473309,.000123,51.8713,85.5442,67.7479,292.3639,0,U,69279,999,295,.48171E-3,.18225E-3,0
KUIPER-00595,2026-118P,2026-06-10T11:47:54.469824,15.38364533,.0002032,51.8708,85.5575,111.4875,248.6328,0,U,69280,999,298,.48335E-3,.18222E-3,0
KUIPER-00596,2026-118Q,2026-06-10T09:09:35.728128,15.35471456,.0011927,51.8556,86.3141,159.1490,200.9985,0,U,69281,999,293,.37873E-3,.12917E-3,0
KUIPER-00597,2026-118R,2026-06-10T12:02:18.036096,15.36923522,.0007202,51.8650,85.6254,144.8991,215.2471,0,U,69282,999,295,.46922E-3,.16865E-3,0
KUIPER-00599,2026-118S,2026-06-10T12:00:17.595360,15.37222384,.0006394,51.8689,85.6155,138.7029,221.4442,0,U,69283,999,295,.4416E-3,.16001E-3,0
KUIPER-00600,2026-118T,2026-06-10T07:25:30.927072,15.36626719,.0008916,51.8638,86.5873,146.5363,213.6188,0,U,69284,999,292,.58944E-3,.21102E-3,0
KUIPER-00601,2026-118U,2026-06-10T08:49:52.696992,15.37541219,.0004899,51.8698,86.2294,131.4768,228.6640,0,U,69285,999,293,.30674E-3,.11102E-3,0
KUIPER-00602,2026-118V,2026-06-10T11:51:48.705408,15.38000242,.0003171,51.8698,85.5773,121.8249,238.3047,0,U,69286,999,295,.56218E-3,.21014E-3,0
KUIPER-00603,2026-118W,2026-06-10T08:51:07.884000,15.37400763,.0005621,51.8667,86.2375,134.0998,226.0452,0,U,69287,999,293,.6005E-3,.22044E-3,0
KUIPER-00605,2026-118X,2026-06-10T12:03:29.171808,15.36949475,.0007673,51.8662,85.6307,141.2352,218.9186,0,U,69288,999,295,.44555E-3,.16008E-3,0
